OBJECT_NAME,OBJECT_ID,EPOCH,MEAN_MOTION,ECCENTRICITY,INCLINATION,RA_OF_ASC_NODE,ARG_OF_PERICENTER,MEAN_ANOMALY,EPHEMERIS_TYPE,CLASSIFICATION_TYPE,NORAD_CAT_ID,ELEMENT_SET_NO,REV_AT_EPOCH,BSTAR,MEAN_MOTION_DOT,MEAN_MOTION_DDOT
STARLINK-32144,2024-131Q,2026-07-22T02:56:32.280576,15.31709813,.00011333,53.1610,147.1002,72.6556,287.4569,0,U,60269,999,11236,.22785899E-4,.342E-5,0
STARLINK-32211,2024-131R,2026-07-22T02:35:08.005920,15.34397019,.00012701,53.1612,147.7325,86.3660,273.7487,0,U,60270,999,11230,.26409712E-4,.516E-5,0
STARLINK-32164,2024-131S,2026-07-22T20:47:30.530976,15.34388120,.00011259,53.1602,144.6279,81.4530,278.6601,0,U,60271,999,11231,-.51728403E-4,-.2123E-4,0
STARLINK-32128,2024-131T,2026-07-22T02:56:41.152128,15.30202038,.00014639,53.1600,147.8084,84.8584,275.2584,0,U,60272,999,11230,.14056068E-4,.57E-6,0
STARLINK-32206,2024-131U,2026-07-22T20:00:01.999872,15.34374175,.00012087,53.1585,144.7711,95.3259,94.2492,0,U,60273,999,590,.16743903E-2,.56577E-3,0
STARLINK-32155,2024-131V,2026-07-22T02:16:21.238464,15.31704478,.00013976,53.1620,147.6357,103.0237,257.0921,0,U,60274,999,11220,.31397582E-4,.609E-5,0
STARLINK-32152,2024-131W,2026-07-22T21:40:45.984864,15.30193514,.00012949,53.1590,144.1454,88.8059,271.3090,0,U,60275,999,11232,-.11189315E-3,-.3671E-4,0
STARLINK-32154,2024-131X,2026-07-22T18:23:32.677152,15.30102957,.00020217,53.1606,144.7109,110.5731,249.5487,0,U,60276,999,11240,.4276778E-3,.12291E-3,0
STARLINK-32135,2024-131Y,2026-07-22T19:43:52.027680,15.34386864,.00014911,53.1611,144.3497,103.3409,256.7760,0,U,60277,999,11241,-.1840471E-5,-.439E-5,0
STARLINK-32156,2024-132A,2026-07-22T16:00:01.999584,15.30166568,.00011677,53.1579,145.3858,92.5002,37.4808,0,U,60278,999,585,.15855426E-2,.46848E-3,0
STARLINK-32010,2024-132B,2026-07-22T19:09:18.117504,15.31702105,.00012959,53.1600,144.3299,117.6670,242.4463,0,U,60279,999,11225,-.43019931E-4,-.17E-4,0
STARLINK-32118,2024-132C,2026-07-22T19:58:48.820800,15.30445934,.00014396,53.1606,144.5429,73.5518,286.5642,0,U,60280,999,11225,.11434277E-2,.3392E-3,0
STARLINK-32038,2024-132D,2026-07-22T20:00:01.999872,15.33553054,.00013057,53.1603,144.4705,102.8142,297.8839,0,U,60281,999,585,.11304024E-2,.36992E-3,0
STARLINK-32113,2024-132E,2026-07-22T19:40:52.180032,15.34381810,.00011097,53.1622,144.4691,79.7322,280.3805,0,U,60282,999,11225,-.40110191E-4,-.173E-4,0
STARLINK-32037,2024-132F,2026-07-22T13:06:53.752608,15.31706084,.00013735,53.1583,145.6008,95.8283,264.2875,0,U,60283,999,11221,-.66575197E-4,-.2431E-4,0
STARLINK-32123,2024-132G,2026-07-22T19:03:49.114080,15.30183764,.00014371,53.1601,132.2494,83.5898,276.5267,0,U,60284,999,11242,-.23600861E-4,-.1058E-4,0
STARLINK-32122,2024-132H,2026-07-22T16:00:01.999584,15.31663356,.00013157,53.1584,145.2481,103.0022,97.4807,0,U,60285,999,585,.18057014E-2,.56025E-3,0
STARLINK-31656,2024-132J,2026-07-22T08:50:50.515872,15.30922542,.00010932,53.1589,146.6344,78.6551,281.4573,0,U,60286,999,11218,.33889146E-2,.103722E-2,0
STARLINK-32114,2024-132K,2026-07-22T02:15:53.320032,15.31702918,.00013237,53.1616,147.7584,95.1219,264.9933,0,U,60287,999,11214,.21959845E-4,.316E-5,0
STARLINK-31997,2024-132L,2026-07-22T19:36:21.632256,15.30190622,.0001579,53.1616,144.4482,64.1643,295.9520,0,U,60288,999,11225,-.43436668E-4,-.1645E-4,0
STARLINK-32000,2024-132M,2026-07-22T20:16:22.602720,15.31704165,.00014999,53.1604,143.9166,61.9319,298.1834,0,U,60289,999,11226,-.50279287E-4,-.1925E-4,0
STARLINK-32141,2024-132N,2026-07-22T20:00:01.999872,15.34362519,.00008365,53.1599,144.5863,79.8748,260.7980,0,U,60290,999,587,.1241847E-2,.41765E-3,0
STARLINK-32142,2024-132P,2026-07-22T20:00:01.999872,15.34380792,.00016503,53.1588,144.3111,94.7654,25.4402,0,U,60291,999,590,.16311824E-2,.55108E-3,0
STARLINK-32149,2024-132Q,2026-07-22T13:00:39.766752,15.31703545,.00014111,53.1590,145.5809,75.1122,285.0036,0,U,60292,999,11221,.19089736E-4,.227E-5,0
STARLINK-32159,2024-132R,2026-07-22T19:40:55.339680,15.30184970,.00012913,53.1607,144.4660,81.4419,278.6728,0,U,60293,999,11225,-.70899386E-4,-.2457E-4,0
STARLINK-32150,2024-132S,2026-07-22T06:51:32.665536,15.31678775,.00015953,53.1609,146.8230,119.4432,240.6729,0,U,60294,999,11217,.2005158E-3,.5858E-4,0
STARLINK-32126,2024-132T,2026-07-22T20:37:01.990848,15.31694716,.00012756,53.1595,143.9991,80.0035,280.1111,0,U,60295,999,11226,-.4865427E-4,-.1874E-4,0
STARLINK-32143,2024-132U,2026-07-22T03:10:00.352128,15.31709831,.00013505,53.1605,147.2879,81.6527,278.4627,0,U,60296,999,11215,.33966264E-4,.689E-5,0
STARLINK-32034,2024-132V,2026-07-22T20:02:55.982688,15.31692744,.00014671,53.1613,143.8582,80.5829,279.5339,0,U,60297,999,11226,-.18175384E-4,-.929E-5,0
STARLINK-32124,2024-132W,2026-07-22T01:29:19.156992,15.31710776,.00013098,53.1601,147.5615,85.2587,274.8564,0,U,60298,999,11214,.53341059E-4,.1291E-4,0
