{"epoch":1784799577,"count":18318,"objects":[{"id":"60269","name":"STARLINK-32144","type":"PAYLOAD","l1":"1 60269U 24131Q   26203.12259584  .00000342  00000-0  22786-4 0  9991","l2":"2 60269  53.1610 147.1002 0001133  72.6556 287.4569 15.31709813112367"},{"id":"60270","name":"STARLINK-32211","type":"PAYLOAD","l1":"1 60270U 24131R   26203.10773155  .00000516  00000-0  26410-4 0  9997","l2":"2 60270  53.1612 147.7325 0001270  86.3660 273.7487 15.34397019112300"},{"id":"60271","name":"STARLINK-32164","type":"PAYLOAD","l1":"1 60271U 24131S   26203.86632559 -.00002123  00000-0 -51728-4 0  9991","l2":"2 60271  53.1602 144.6279 0001126  81.4530 278.6601 15.34388120112312"},{"id":"60272","name":"STARLINK-32128","type":"PAYLOAD","l1":"1 60272U 24131T   26203.12269852  .00000057  00000-0  14056-4 0  9998","l2":"2 60272  53.1600 147.8084 0001464  84.8584 275.2584 15.30202038112302"},{"id":"60273","name":"STARLINK-32206","type":"PAYLOAD","l1":"1 60273U 24131U   26203.83335648  .00056577  00000-0  16744-2 0  9996","l2":"2 60273  53.1585 144.7711 0001209  95.3259  94.2492 15.34374175  5901"},{"id":"60274","name":"STARLINK-32155","type":"PAYLOAD","l1":"1 60274U 24131V   26203.09469026  .00000609  00000-0  31398-4 0  9992","l2":"2 60274  53.1620 147.6357 0001398 103.0237 257.0921 15.31704478112200"},{"id":"60275","name":"STARLINK-32152","type":"PAYLOAD","l1":"1 60275U 24131W   26203.90331001 -.00003671  00000-0 -11189-3 0  9993","l2":"2 60275  53.1590 144.1454 0001295  88.8059 271.3090 15.30193514112326"},{"id":"60276","name":"STARLINK-32154","type":"PAYLOAD","l1":"1 60276U 24131X   26203.76635043  .00012291  00000-0  42768-3 0  9994","l2":"2 60276  53.1606 144.7109 0002022 110.5731 249.5487 15.30102957112404"},{"id":"60277","name":"STARLINK-32135","type":"PAYLOAD","l1":"1 60277U 24131Y   26203.82212995 -.00000439  00000-0 -18405-5 0  9995","l2":"2 60277  53.1611 144.3497 0001491 103.3409 256.7760 15.34386864112418"},{"id":"60278","name":"STARLINK-32156","type":"PAYLOAD","l1":"1 60278U 24132A   26203.66668981  .00046848  00000-0  15855-2 0  9994","l2":"2 60278  53.1579 145.3858 0001168  92.5002  37.4808 15.30166568  5852"},{"id":"60279","name":"STARLINK-32010","type":"PAYLOAD","l1":"1 60279U 24132B   26203.79812636 -.00001700  00000-0 -43020-4 0  9994","l2":"2 60279  53.1600 144.3299 0001296 117.6670 242.4463 15.31702105112250"},{"id":"60280","name":"STARLINK-32118","type":"PAYLOAD","l1":"1 60280U 24132C   26203.83250950  .00033920  00000-0  11434-2 0  9995","l2":"2 60280  53.1606 144.5429 0001440  73.5518 286.5642 15.30445934112258"},{"id":"60281","name":"STARLINK-32038","type":"PAYLOAD","l1":"1 60281U 24132D   26203.83335648  .00036992  00000-0  11304-2 0  9992","l2":"2 60281  53.1603 144.4705 0001306 102.8142 297.8839 15.33553054  5858"},{"id":"60282","name":"STARLINK-32113","type":"PAYLOAD","l1":"1 60282U 24132E   26203.82004838 -.00001730  00000-0 -40110-4 0  9999","l2":"2 60282  53.1622 144.4691 0001110  79.7322 280.3805 15.34381810112252"},{"id":"60283","name":"STARLINK-32037","type":"PAYLOAD","l1":"1 60283U 24132F   26203.54645547 -.00002431  00000-0 -66575-4 0  9999","l2":"2 60283  53.1583 145.6008 0001373  95.8283 264.2875 15.31706084112215"},{"id":"60284","name":"STARLINK-32123","type":"PAYLOAD","l1":"1 60284U 24132G   26203.79431845 -.00001058  00000-0 -23601-4 0  9998","l2":"2 60284  53.1601 132.2494 0001437  83.5898 276.5267 15.30183764112422"},{"id":"60285","name":"STARLINK-32122","type":"PAYLOAD","l1":"1 60285U 24132H   26203.66668981  .00056025  00000-0  18057-2 0  9997","l2":"2 60285  53.1584 145.2481 0001316 103.0022  97.4807 15.31663356  5855"},{"id":"60286","name":"STARLINK-31656","type":"PAYLOAD","l1":"1 60286U 24132J   26203.36864023  .00103722  00000-0  33889-2 0  9997","l2":"2 60286  53.1589 146.6344 0001093  78.6551 281.4573 15.30922542112184"},{"id":"60287","name":"STARLINK-32114","type":"PAYLOAD","l1":"1 60287U 24132K   26203.09436713  .00000316  00000-0  21960-4 0  9993","l2":"2 60287  53.1616 147.7584 0001324  95.1219 264.9933 15.31702918112142"},{"id":"60288","name":"STARLINK-31997","type":"PAYLOAD","l1":"1 60288U 24132L   26203.81691704 -.00001645  00000-0 -43437-4 0  9998","l2":"2 60288  53.1616 144.4482 0001579  64.1643 295.9520 15.30190622112253"},{"id":"60289","name":"STARLINK-32000","type":"PAYLOAD","l1":"1 60289U 24132M   26203.84470605 -.00001925  00000-0 -50279-4 0  9990","l2":"2 60289  53.1604 143.9166 0001500  61.9319 298.1834 15.31704165112261"},{"id":"60290","name":"STARLINK-32141","type":"PAYLOAD","l1":"1 60290U 24132N   26203.83335648  .00041765  00000-0  12418-2 0  9993","l2":"2 60290  53.1599 144.5863 0000836  79.8748 260.7980 15.34362519  5873"},{"id":"60291","name":"STARLINK-32142","type":"PAYLOAD","l1":"1 60291U 24132P   26203.83335648  .00055108  00000-0  16312-2 0  9997","l2":"2 60291  53.1588 144.3111 0001650  94.7654  25.4402 15.34380792  5905"},{"id":"60292","name":"STARLINK-32149","type":"PAYLOAD","l1":"1 60292U 24132Q   26203.54212693  .00000227  00000-0  19090-4 0  9990","l2":"2 60292  53.1590 145.5809 0001411  75.1122 285.0036 15.31703545112216"},{"id":"60293","name":"STARLINK-32159","type":"PAYLOAD","l1":"1 60293U 24132R   26203.82008495 -.00002457  00000-0 -70899-4 0  9998","l2":"2 60293  53.1607 144.4660 0001291  81.4419 278.6728 15.30184970112258"},{"id":"60294","name":"STARLINK-32150","type":"PAYLOAD","l1":"1 60294U 24132S   26203.28579474  .00005858  00000-0  20052-3 0  9990","l2":"2 60294  53.1609 146.8230 0001595 119.4432 240.6729 15.31678775112177"},{"id":"60295","name":"STARLINK-32126","type":"PAYLOAD","l1":"1 60295U 24132T   26203.85905082 -.00001874  00000-0 -48654-4 0  9997","l2":"2 60295  53.1595 143.9991 0001276  80.0035 280.1111 15.31694716112269"},{"id":"60296","name":"STARLINK-32143","type":"PAYLOAD","l1":"1 60296U 24132U   26203.13194852  .00000689  00000-0  33966-4 0  9995","l2":"2 60296  53.1605 147.2879 0001351  81.6527 278.4627 15.31709831112156"},{"id":"60297","name":"STARLINK-32034","type":"PAYLOAD","l1":"1 60297U 24132V   26203.83537017 -.00000929  00000-0 -18175-4 0  9991","l2":"2 60297  53.1613 143.8582 0001467  80.5829 279.5339 15.31692744112268"},{"id":"60298","name":"STARLINK-32124","type":"PAYLOAD","l1":"1 60298U 24132W   26203.06202728  .00001291  00000-0  53341-4 0  9990","l2":"2 60298  53.1601 147.5615 0001310  85.2587 274.8564 15.31710776112145"}]}